{"type": "FeatureCollection", "features": [{"type": "Feature", "geometry": {"type": "Polygon", "coordinates": [[[720626.484189, 4302962.908316], [720627.003477, 4302963.472114], [720627.930863, 4302962.640052], [720627.38736, 4302962.034827], [720626.484189, 4302962.908316]]]}, "properties": {}}, {"type": "Feature", "geometry": {"type": "Polygon", "coordinates": [[[720627.38736, 4302962.034827], [720627.930863, 4302962.640052], [720628.598111, 4302962.041389], [720628.037967, 4302961.405601], [720627.38736, 4302962.034827]]]}, "properties": {}}, {"type": "Feature", "geometry": {"type": "Polygon", "coordinates": [[[720628.037967, 4302961.405601], [720628.598111, 4302962.041389], [720629.18157, 4302961.517903], [720628.613371, 4302960.849106], [720628.037967, 4302961.405601]]]}, "properties": {}}, {"type": "Feature", "geometry": {"type": "Polygon", "coordinates": [[[720628.613371, 4302960.849106], [720629.18157, 4302961.517903], [720629.780996, 4302960.98009], [720629.185787, 4302960.295503], [720628.613371, 4302960.849106]]]}, "properties": {}}, {"type": "Feature", "geometry": {"type": "Polygon", "coordinates": [[[720629.185787, 4302960.295503], [720629.780996, 4302960.98009], [720630.45332, 4302960.376874], [720629.843808, 4302959.659107], [720629.185787, 4302960.295503]]]}, "properties": {}}, {"type": "Feature", "geometry": {"type": "Polygon", "coordinates": [[[720629.843808, 4302959.659107], [720630.45332, 4302960.376874], [720630.998539, 4302959.887697], [720630.359428, 4302959.160432], [720629.843808, 4302959.659107]]]}, "properties": {}}, {"type": "Feature", "geometry": {"type": "Polygon", "coordinates": [[[720627.003477, 4302963.472114], [720627.52279, 4302964.03594], [720628.444058, 4302963.211528], [720627.930863, 4302962.640052], [720627.003477, 4302963.472114]]]}, "properties": {}}, {"type": "Feature", "geometry": {"type": "Polygon", "coordinates": [[[720627.930863, 4302962.640052], [720628.444058, 4302963.211528], [720629.106644, 4302962.6186], [720628.598111, 4302962.041389], [720627.930863, 4302962.640052]]]}, "properties": {}}, {"type": "Feature", "geometry": {"type": "Polygon", "coordinates": [[[720628.598111, 4302962.041389], [720629.106644, 4302962.6186], [720629.680454, 4302962.105115], [720629.18157, 4302961.517903], [720628.598111, 4302962.041389]]]}, "properties": {}}, {"type": "Feature", "geometry": {"type": "Polygon", "coordinates": [[[720629.18157, 4302961.517903], [720629.680454, 4302962.105115], [720630.287128, 4302961.562222], [720629.780996, 4302960.98009], [720629.18157, 4302961.517903]]]}, "properties": {}}, {"type": "Feature", "geometry": {"type": "Polygon", "coordinates": [[[720629.780996, 4302960.98009], [720630.287128, 4302961.562222], [720630.953508, 4302960.965899], [720630.45332, 4302960.376874], [720629.780996, 4302960.98009]]]}, "properties": {}}, {"type": "Feature", "geometry": {"type": "Polygon", "coordinates": [[[720630.45332, 4302960.376874], [720630.953508, 4302960.965899], [720631.509119, 4302960.4687], [720630.998539, 4302959.887697], [720630.45332, 4302960.376874]]]}, "properties": {}}, {"type": "Feature", "geometry": {"type": "Polygon", "coordinates": [[[720627.52279, 4302964.03594], [720628.042116, 4302964.59978], [720628.939153, 4302963.762848], [720628.444058, 4302963.211528], [720627.52279, 4302964.03594]]]}, "properties": {}}, {"type": "Feature", "geometry": {"type": "Polygon", "coordinates": [[[720628.444058, 4302963.211528], [720628.939153, 4302963.762848], [720629.584381, 4302963.160855], [720629.106644, 4302962.6186], [720628.444058, 4302963.211528]]]}, "properties": {}}, {"type": "Feature", "geometry": {"type": "Polygon", "coordinates": [[[720629.106644, 4302962.6186], [720629.584381, 4302963.160855], [720630.138313, 4302962.644039], [720629.680454, 4302962.105115], [720629.106644, 4302962.6186]]]}, "properties": {}}, {"type": "Feature", "geometry": {"type": "Polygon", "coordinates": [[[720629.680454, 4302962.105115], [720630.138313, 4302962.644039], [720630.739794, 4302962.082861], [720630.287128, 4302961.562222], [720629.680454, 4302962.105115]]]}, "properties": {}}, {"type": "Feature", "geometry": {"type": "Polygon", "coordinates": [[[720630.287128, 4302961.562222], [720630.739794, 4302962.082861], [720631.388249, 4302961.477856], [720630.953508, 4302960.965899], [720630.287128, 4302961.562222]]]}, "properties": {}}, {"type": "Feature", "geometry": {"type": "Polygon", "coordinates": [[[720630.953508, 4302960.965899], [720631.388249, 4302961.477856], [720631.941961, 4302960.961247], [720631.509119, 4302960.4687], [720630.953508, 4302960.965899]]]}, "properties": {}}, {"type": "Feature", "geometry": {"type": "Polygon", "coordinates": [[[720628.042116, 4302964.59978], [720628.561426, 4302965.163602], [720629.456331, 4302964.33876], [720628.939153, 4302963.762848], [720628.042116, 4302964.59978]]]}, "properties": {}}, {"type": "Feature", "geometry": {"type": "Polygon", "coordinates": [[[720628.939153, 4302963.762848], [720629.456331, 4302964.33876], [720630.099697, 4302963.745763], [720629.584381, 4302963.160855], [720628.939153, 4302963.762848]]]}, "properties": {}}, {"type": "Feature", "geometry": {"type": "Polygon", "coordinates": [[[720629.584381, 4302963.160855], [720630.099697, 4302963.745763], [720630.646295, 4302963.241958], [720630.138313, 4302962.644039], [720629.584381, 4302963.160855]]]}, "properties": {}}, {"type": "Feature", "geometry": {"type": "Polygon", "coordinates": [[[720630.138313, 4302962.644039], [720630.646295, 4302963.241958], [720631.257645, 4302962.678471], [720630.739794, 4302962.082861], [720630.138313, 4302962.644039]]]}, "properties": {}}, {"type": "Feature", "geometry": {"type": "Polygon", "coordinates": [[[720630.739794, 4302962.082861], [720631.257645, 4302962.678471], [720631.902814, 4302962.083812], [720631.388249, 4302961.477856], [720630.739794, 4302962.082861]]]}, "properties": {}}, {"type": "Feature", "geometry": {"type": "Polygon", "coordinates": [[[720631.388249, 4302961.477856], [720631.902814, 4302962.083812], [720632.469473, 4302961.561518], [720631.941961, 4302960.961247], [720631.388249, 4302961.477856]]]}, "properties": {}}, {"type": "Feature", "geometry": {"type": "Polygon", "coordinates": [[[720628.561426, 4302965.163602], [720629.080738, 4302965.727426], [720629.973465, 4302964.914621], [720629.456331, 4302964.33876], [720628.561426, 4302965.163602]]]}, "properties": {}}, {"type": "Feature", "geometry": {"type": "Polygon", "coordinates": [[[720629.456331, 4302964.33876], [720629.973465, 4302964.914621], [720630.614934, 4302964.330582], [720630.099697, 4302963.745763], [720629.456331, 4302964.33876]]]}, "properties": {}}, {"type": "Feature", "geometry": {"type": "Polygon", "coordinates": [[[720630.099697, 4302963.745763], [720630.614934, 4302964.330582], [720631.154107, 4302963.839679], [720630.646295, 4302963.241958], [720630.099697, 4302963.745763]]]}, "properties": {}}, {"type": "Feature", "geometry": {"type": "Polygon", "coordinates": [[[720630.646295, 4302963.241958], [720631.154107, 4302963.839679], [720631.775418, 4302963.273993], [720631.257645, 4302962.678471], [720630.646295, 4302963.241958]]]}, "properties": {}}, {"type": "Feature", "geometry": {"type": "Polygon", "coordinates": [[[720631.257645, 4302962.678471], [720631.775418, 4302963.273993], [720632.417251, 4302962.689619], [720631.902814, 4302962.083812], [720631.257645, 4302962.678471]]]}, "properties": {}}, {"type": "Feature", "geometry": {"type": "Polygon", "coordinates": [[[720631.902814, 4302962.083812], [720632.417251, 4302962.689619], [720632.996985, 4302962.161789], [720632.469473, 4302961.561518], [720631.902814, 4302962.083812]]]}, "properties": {}}, {"type": "Feature", "geometry": {"type": "Polygon", "coordinates": [[[720629.080738, 4302965.727426], [720629.60005, 4302966.291251], [720630.490554, 4302965.490434], [720629.973465, 4302964.914621], [720629.080738, 4302965.727426]]]}, "properties": {}}, {"type": "Feature", "geometry": {"type": "Polygon", "coordinates": [[[720629.973465, 4302964.914621], [720630.490554, 4302965.490434], [720631.130091, 4302964.915309], [720630.614934, 4302964.330582], [720629.973465, 4302964.914621]]]}, "properties": {}}, {"type": "Feature", "geometry": {"type": "Polygon", "coordinates": [[[720630.614934, 4302964.330582], [720631.130091, 4302964.915309], [720631.66175, 4302964.437198], [720631.154107, 4302963.839679], [720630.614934, 4302964.330582]]]}, "properties": {}}, {"type": "Feature", "geometry": {"type": "Polygon", "coordinates": [[[720631.154107, 4302963.839679], [720631.66175, 4302964.437198], [720632.293112, 4302963.869424], [720631.775418, 4302963.273993], [720631.154107, 4302963.839679]]]}, "properties": {}}, {"type": "Feature", "geometry": {"type": "Polygon", "coordinates": [[[720631.775418, 4302963.273993], [720632.293112, 4302963.869424], [720632.931561, 4302963.295277], [720632.417251, 4302962.689619], [720631.775418, 4302963.273993]]]}, "properties": {}}, {"type": "Feature", "geometry": {"type": "Polygon", "coordinates": [[[720632.417251, 4302962.689619], [720632.931561, 4302963.295277], [720633.524495, 4302962.762061], [720632.996985, 4302962.161789], [720632.417251, 4302962.689619]]]}, "properties": {}}, {"type": "Feature", "geometry": {"type": "Polygon", "coordinates": [[[720629.60005, 4302966.291251], [720630.119369, 4302966.855083], [720630.988067, 4302966.044447], [720630.490554, 4302965.490434], [720629.60005, 4302966.291251]]]}, "properties": {}}, {"type": "Feature", "geometry": {"type": "Polygon", "coordinates": [[[720630.490554, 4302965.490434], [720630.988067, 4302966.044447], [720631.61196, 4302965.462254], [720631.130091, 4302964.915309], [720630.490554, 4302965.490434]]]}, "properties": {}}, {"type": "Feature", "geometry": {"type": "Polygon", "coordinates": [[[720631.130091, 4302964.915309], [720631.61196, 4302965.462254], [720632.125492, 4302964.983045], [720631.66175, 4302964.437198], [720631.130091, 4302964.915309]]]}, "properties": {}}, {"type": "Feature", "geometry": {"type": "Polygon", "coordinates": [[[720631.66175, 4302964.437198], [720632.125492, 4302964.983045], [720632.752573, 4302964.397877], [720632.293112, 4302963.869424], [720631.66175, 4302964.437198]]]}, "properties": {}}, {"type": "Feature", "geometry": {"type": "Polygon", "coordinates": [[[720632.293112, 4302963.869424], [720632.752573, 4302964.397877], [720633.3748, 4302963.817239], [720632.931561, 4302963.295277], [720632.293112, 4302963.869424]]]}, "properties": {}}, {"type": "Feature", "geometry": {"type": "Polygon", "coordinates": [[[720632.931561, 4302963.295277], [720633.3748, 4302963.817239], [720633.966526, 4302963.265062], [720633.524495, 4302962.762061], [720632.931561, 4302963.295277]]]}, "properties": {}}, {"type": "Feature", "geometry": {"type": "Polygon", "coordinates": [[[720630.119369, 4302966.855083], [720630.638675, 4302967.418901], [720631.529685, 4302966.647573], [720630.988067, 4302966.044447], [720630.119369, 4302966.855083]]]}, "properties": {}}, {"type": "Feature", "geometry": {"type": "Polygon", "coordinates": [[[720630.988067, 4302966.044447], [720631.529685, 4302966.647573], [720632.168805, 4302966.094301], [720631.61196, 4302965.462254], [720630.988067, 4302966.044447]]]}, "properties": {}}, {"type": "Feature", "geometry": {"type": "Polygon", "coordinates": [[[720631.61196, 4302965.462254], [720632.168805, 4302966.094301], [720632.687853, 4302965.644973], [720632.125492, 4302964.983045], [720631.61196, 4302965.462254]]]}, "properties": {}}, {"type": "Feature", "geometry": {"type": "Polygon", "coordinates": [[[720632.125492, 4302964.983045], [720632.687853, 4302965.644973], [720633.343429, 4302965.077456], [720632.752573, 4302964.397877], [720632.125492, 4302964.983045]]]}, "properties": {}}, {"type": "Feature", "geometry": {"type": "Polygon", "coordinates": [[[720632.752573, 4302964.397877], [720633.343429, 4302965.077456], [720633.978269, 4302964.527889], [720633.3748, 4302963.817239], [720632.752573, 4302964.397877]]]}, "properties": {}}, {"type": "Feature", "geometry": {"type": "Polygon", "coordinates": [[[720633.3748, 4302963.817239], [720633.978269, 4302964.527889], [720634.601876, 4302963.988045], [720633.966526, 4302963.265062], [720633.3748, 4302963.817239]]]}, "properties": {}}, {"type": "Feature", "geometry": {"type": "Polygon", "coordinates": [[[720630.638675, 4302967.418901], [720631.126752, 4302967.948813], [720632.017645, 4302967.190949], [720631.529685, 4302966.647573], [720630.638675, 4302967.418901]]]}, "properties": {}}, {"type": "Feature", "geometry": {"type": "Polygon", "coordinates": [[[720631.529685, 4302966.647573], [720632.017645, 4302967.190949], [720632.656314, 4302966.647647], [720632.168805, 4302966.094301], [720631.529685, 4302966.647573]]]}, "properties": {}}, {"type": "Feature", "geometry": {"type": "Polygon", "coordinates": [[[720632.168805, 4302966.094301], [720632.656314, 4302966.647647], [720633.169103, 4302966.211428], [720632.687853, 4302965.644973], [720632.168805, 4302966.094301]]]}, "properties": {}}, {"type": "Feature", "geometry": {"type": "Polygon", "coordinates": [[[720632.687853, 4302965.644973], [720633.169103, 4302966.211428], [720633.83606, 4302965.644062], [720633.343429, 4302965.077456], [720632.687853, 4302965.644973]]]}, "properties": {}}, {"type": "Feature", "geometry": {"type": "Polygon", "coordinates": [[[720633.343429, 4302965.077456], [720633.83606, 4302965.644062], [720634.468926, 4302965.105694], [720633.978269, 4302964.527889], [720633.343429, 4302965.077456]]]}, "properties": {}}, {"type": "Feature", "geometry": {"type": "Polygon", "coordinates": [[[720633.978269, 4302964.527889], [720634.468926, 4302965.105694], [720635.107029, 4302964.562875], [720634.601876, 4302963.988045], [720633.978269, 4302964.527889]]]}, "properties": {}}, {"type": "Feature", "geometry": {"type": "Polygon", "coordinates": [[[720631.126752, 4302967.948813], [720631.677306, 4302968.546558], [720632.558457, 4302967.793179], [720632.017645, 4302967.190949], [720631.126752, 4302967.948813]]]}, "properties": {}}, {"type": "Feature", "geometry": {"type": "Polygon", "coordinates": [[[720632.017645, 4302967.190949], [720632.558457, 4302967.793179], [720633.189904, 4302967.253296], [720632.656314, 4302966.647647], [720632.017645, 4302967.190949]]]}, "properties": {}}, {"type": "Feature", "geometry": {"type": "Polygon", "coordinates": [[[720632.656314, 4302966.647647], [720633.189904, 4302967.253296], [720633.690575, 4302966.825225], [720633.169103, 4302966.211428], [720632.656314, 4302966.647647]]]}, "properties": {}}, {"type": "Feature", "geometry": {"type": "Polygon", "coordinates": [[[720633.169103, 4302966.211428], [720633.690575, 4302966.825225], [720634.36309, 4302966.250229], [720633.83606, 4302965.644062], [720633.169103, 4302966.211428]]]}, "properties": {}}, {"type": "Feature", "geometry": {"type": "Polygon", "coordinates": [[[720633.83606, 4302965.644062], [720634.36309, 4302966.250229], [720634.987496, 4302965.716366], [720634.468926, 4302965.105694], [720633.83606, 4302965.644062]]]}, "properties": {}}, {"type": "Feature", "geometry": {"type": "Polygon", "coordinates": [[[720634.468926, 4302965.105694], [720634.987496, 4302965.716366], [720635.634541, 4302965.163147], [720635.107029, 4302964.562875], [720634.468926, 4302965.105694]]]}, "properties": {}}, {"type": "Feature", "geometry": {"type": "Polygon", "coordinates": [[[720631.677306, 4302968.546558], [720632.196622, 4302969.110387], [720633.075317, 4302968.368735], [720632.558457, 4302967.793179], [720631.677306, 4302968.546558]]]}, "properties": {}}, {"type": "Feature", "geometry": {"type": "Polygon", "coordinates": [[[720632.558457, 4302967.793179], [720633.075317, 4302968.368735], [720633.704649, 4302967.837557], [720633.189904, 4302967.253296], [720632.558457, 4302967.793179]]]}, "properties": {}}, {"type": "Feature", "geometry": {"type": "Polygon", "coordinates": [[[720633.189904, 4302967.253296], [720633.704649, 4302967.837557], [720634.197337, 4302967.42171], [720633.690575, 4302966.825225], [720633.189904, 4302967.253296]]]}, "properties": {}}, {"type": "Feature", "geometry": {"type": "Polygon", "coordinates": [[[720633.690575, 4302966.825225], [720634.197337, 4302967.42171], [720634.880381, 4302966.845196], [720634.36309, 4302966.250229], [720633.690575, 4302966.825225]]]}, "properties": {}}, {"type": "Feature", "geometry": {"type": "Polygon", "coordinates": [[[720634.36309, 4302966.250229], [720634.880381, 4302966.845196], [720635.501147, 4302966.321247], [720634.987496, 4302965.716366], [720634.36309, 4302966.250229]]]}, "properties": {}}, {"type": "Feature", "geometry": {"type": "Polygon", "coordinates": [[[720634.987496, 4302965.716366], [720635.501147, 4302966.321247], [720636.162052, 4302965.763418], [720635.634541, 4302965.163147], [720634.987496, 4302965.716366]]]}, "properties": {}}], "crs": {"type": "name", "properties": {"name": "EPSG:32615"}}}