{"type": "FeatureCollection", "features": [{"type": "Feature", "geometry": {"type": "Polygon", "coordinates": [[[720632.3096804173, 4302968.90882768], [720632.9418473941, 4302968.372188283], [720632.430495329, 4302967.808473908], [720631.7978172572, 4302968.346390524], [720632.3096804173, 4302968.90882768]]]}, "properties": {}}, {"type": "Feature", "geometry": {"type": "Polygon", "coordinates": [[[720631.7978172572, 4302968.346390524], [720632.430495329, 4302967.808473908], [720631.9191420766, 4302967.244759831], [720631.2859532066, 4302967.783953516], [720631.7978172572, 4302968.346390524]]]}, "properties": {}}, {"type": "Feature", "geometry": {"type": "Polygon", "coordinates": [[[720631.2859532066, 4302967.783953516], [720631.9191420766, 4302967.244759831], [720631.4077888243, 4302966.681045753], [720630.7740894529, 4302967.221516433], [720631.2859532066, 4302967.783953516]]]}, "properties": {}}, {"type": "Feature", "geometry": {"type": "Polygon", "coordinates": [[[720630.7740894529, 4302967.221516433], [720631.4077888243, 4302966.681045753], [720630.8964364624, 4302966.117331378], [720630.2622259959, 4302966.6590795], [720630.7740894529, 4302967.221516433]]]}, "properties": {}}, {"type": "Feature", "geometry": {"type": "Polygon", "coordinates": [[[720630.2622259959, 4302966.6590795], [720630.8964364624, 4302966.117331378], [720630.3850838037, 4302965.5536173005], [720629.7503622421, 4302966.096642417], [720630.2622259959, 4302966.6590795]]]}, "properties": {}}, {"type": "Feature", "geometry": {"type": "Polygon", "coordinates": [[[720629.7503622421, 4302966.096642417], [720630.3850838037, 4302965.5536173005], [720629.8737302545, 4302964.989903222], [720629.2384984884, 4302965.534205186], [720629.7503622421, 4302966.096642417]]]}, "properties": {}}, {"type": "Feature", "geometry": {"type": "Polygon", "coordinates": [[[720629.2384984884, 4302965.534205186], [720629.8737302545, 4302964.989903222], [720629.3623770021, 4302964.426188848], [720628.7266347347, 4302964.97176855], [720629.2384984884, 4302965.534205186]]]}, "properties": {}}, {"type": "Feature", "geometry": {"type": "Polygon", "coordinates": [[[720628.7266347347, 4302964.97176855], [720629.3623770021, 4302964.426188848], [720628.8510247887, 4302963.862474473], [720628.2147708324, 4302964.409330726], [720628.7266347347, 4302964.97176855]]]}, "properties": {}}, {"type": "Feature", "geometry": {"type": "Polygon", "coordinates": [[[720628.2147708324, 4302964.409330726], [720628.8510247887, 4302963.862474473], [720628.3396713879, 4302963.2987603955], [720627.7029069304, 4302963.846894088], [720628.2147708324, 4302964.409330726]]]}, "properties": {}}, {"type": "Feature", "geometry": {"type": "Polygon", "coordinates": [[[720627.7029069304, 4302963.846894088], [720628.3396713879, 4302963.2987603955], [720627.828319026, 4302962.735046911], [720627.1910434733, 4302963.284457452], [720627.7029069304, 4302963.846894088]]]}, "properties": {}}, {"type": "Feature", "geometry": {"type": "Polygon", "coordinates": [[[720627.1910434733, 4302963.284457452], [720627.828319026, 4302962.735046911], [720627.3169654768, 4302962.171331646], [720626.6791793022, 4302962.7220190335], [720627.1910434733, 4302963.284457452]]]}, "properties": {}}, {"type": "Feature", "geometry": {"type": "Polygon", "coordinates": [[[720632.9418473941, 4302968.372188283], [720633.5740149644, 4302967.835548737], [720633.0631722135, 4302967.270557515], [720632.430495329, 4302967.808473908], [720632.9418473941, 4302968.372188283]]]}, "properties": {}}, {"type": "Feature", "geometry": {"type": "Polygon", "coordinates": [[[720632.430495329, 4302967.808473908], [720633.0631722135, 4302967.270557515], [720632.5523300562, 4302966.705566591], [720631.9191420766, 4302967.244759831], [720632.430495329, 4302967.808473908]]]}, "properties": {}}, {"type": "Feature", "geometry": {"type": "Polygon", "coordinates": [[[720631.9191420766, 4302967.244759831], [720632.5523300562, 4302966.705566591], [720632.0414878989, 4302966.140574924], [720631.4077888243, 4302966.681045753], [720631.9191420766, 4302967.244759831]]]}, "properties": {}}, {"type": "Feature", "geometry": {"type": "Polygon", "coordinates": [[[720631.4077888243, 4302966.681045753], [720632.0414878989, 4302966.140574924], [720631.5306457416, 4302965.575583998], [720630.8964364624, 4302966.117331378], [720631.4077888243, 4302966.681045753]]]}, "properties": {}}, {"type": "Feature", "geometry": {"type": "Polygon", "coordinates": [[[720630.8964364624, 4302966.117331378], [720631.5306457416, 4302965.575583998], [720631.0198047715, 4302965.010592776], [720630.3850838037, 4302965.5536173005], [720630.8964364624, 4302966.117331378]]]}, "properties": {}}, {"type": "Feature", "geometry": {"type": "Polygon", "coordinates": [[[720630.3850838037, 4302965.5536173005], [720631.0198047715, 4302965.010592776], [720630.5089620206, 4302964.445601258], [720629.8737302545, 4302964.989903222], [720630.3850838037, 4302965.5536173005]]]}, "properties": {}}, {"type": "Feature", "geometry": {"type": "Polygon", "coordinates": [[[720629.8737302545, 4302964.989903222], [720630.5089620206, 4302964.445601258], [720629.9981201602, 4302963.880610333], [720629.3623770021, 4302964.426188848], [720629.8737302545, 4302964.989903222]]]}, "properties": {}}, {"type": "Feature", "geometry": {"type": "Polygon", "coordinates": [[[720629.3623770021, 4302964.426188848], [720629.9981201602, 4302963.880610333], [720629.4872780028, 4302963.315618815], [720628.8510247887, 4302963.862474473], [720629.3623770021, 4302964.426188848]]]}, "properties": {}}, {"type": "Feature", "geometry": {"type": "Polygon", "coordinates": [[[720628.8510247887, 4302963.862474473], [720629.4872780028, 4302963.315618815], [720628.9764358455, 4302962.750627889], [720628.3396713879, 4302963.2987603955], [720628.8510247887, 4302963.862474473]]]}, "properties": {}}, {"type": "Feature", "geometry": {"type": "Polygon", "coordinates": [[[720628.3396713879, 4302963.2987603955], [720628.9764358455, 4302962.750627889], [720628.465593985, 4302962.185636965], [720627.828319026, 4302962.735046911], [720628.3396713879, 4302963.2987603955]]]}, "properties": {}}, {"type": "Feature", "geometry": {"type": "Polygon", "coordinates": [[[720627.828319026, 4302962.735046911], [720628.465593985, 4302962.185636965], [720627.9547515309, 4302961.620644258], [720627.3169654768, 4302962.171331646], [720627.828319026, 4302962.735046911]]]}, "properties": {}}, {"type": "Feature", "geometry": {"type": "Polygon", "coordinates": [[[720633.5740149644, 4302967.835548737], [720634.2061819412, 4302967.298909043], [720633.6958502852, 4302966.732640826], [720633.0631722135, 4302967.270557515], [720633.5740149644, 4302967.835548737]]]}, "properties": {}}, {"type": "Feature", "geometry": {"type": "Polygon", "coordinates": [[[720633.0631722135, 4302967.270557515], [720633.6958502852, 4302966.732640826], [720633.1855186294, 4302966.166372163], [720632.5523300562, 4302966.705566591], [720633.0631722135, 4302967.270557515]]]}, "properties": {}}, {"type": "Feature", "geometry": {"type": "Polygon", "coordinates": [[[720632.5523300562, 4302966.705566591], [720633.1855186294, 4302966.166372163], [720632.6751881607, 4302965.600103797], [720632.0414878989, 4302966.140574924], [720632.5523300562, 4302966.705566591]]]}, "properties": {}}, {"type": "Feature", "geometry": {"type": "Polygon", "coordinates": [[[720632.0414878989, 4302966.140574924], [720632.6751881607, 4302965.600103797], [720632.1648570985, 4302965.033835432], [720631.5306457416, 4302965.575583998], [720632.0414878989, 4302966.140574924]]]}, "properties": {}}, {"type": "Feature", "geometry": {"type": "Polygon", "coordinates": [[[720631.5306457416, 4302965.575583998], [720632.1648570985, 4302965.033835432], [720631.6545260362, 4302964.467567363], [720631.0198047715, 4302965.010592776], [720631.5306457416, 4302965.575583998]]]}, "properties": {}}, {"type": "Feature", "geometry": {"type": "Polygon", "coordinates": [[[720631.0198047715, 4302965.010592776], [720631.6545260362, 4302964.467567363], [720631.1441946771, 4302963.9012987], [720630.5089620206, 4302964.445601258], [720631.0198047715, 4302965.010592776]]]}, "properties": {}}, {"type": "Feature", "geometry": {"type": "Polygon", "coordinates": [[[720630.5089620206, 4302964.445601258], [720631.1441946771, 4302963.9012987], [720630.6338636149, 4302963.335030334], [720629.9981201602, 4302963.880610333], [720630.5089620206, 4302964.445601258]]]}, "properties": {}}, {"type": "Feature", "geometry": {"type": "Polygon", "coordinates": [[[720629.9981201602, 4302963.880610333], [720630.6338636149, 4302963.335030334], [720630.1235322559, 4302962.768761968], [720629.4872780028, 4302963.315618815], [720629.9981201602, 4302963.880610333]]]}, "properties": {}}, {"type": "Feature", "geometry": {"type": "Polygon", "coordinates": [[[720629.4872780028, 4302963.315618815], [720630.1235322559, 4302962.768761968], [720629.6132011935, 4302962.202493603], [720628.9764358455, 4302962.750627889], [720629.4872780028, 4302963.315618815]]]}, "properties": {}}, {"type": "Feature", "geometry": {"type": "Polygon", "coordinates": [[[720628.9764358455, 4302962.750627889], [720629.6132011935, 4302962.202493603], [720629.1028701313, 4302961.6362252375], [720628.465593985, 4302962.185636965], [720628.9764358455, 4302962.750627889]]]}, "properties": {}}, {"type": "Feature", "geometry": {"type": "Polygon", "coordinates": [[[720628.465593985, 4302962.185636965], [720629.1028701313, 4302961.6362252375], [720628.592538327, 4302961.0699562775], [720627.9547515309, 4302961.620644258], [720628.465593985, 4302962.185636965]]]}, "properties": {}}, {"type": "Feature", "geometry": {"type": "Polygon", "coordinates": [[[720634.2061819412, 4302967.298909043], [720634.8383483243, 4302966.762269646], [720634.3285283571, 4302966.194724285], [720633.6958502852, 4302966.732640826], [720634.2061819412, 4302967.298909043]]]}, "properties": {}}, {"type": "Feature", "geometry": {"type": "Polygon", "coordinates": [[[720633.6958502852, 4302966.732640826], [720634.3285283571, 4302966.194724285], [720633.8187077962, 4302965.627178775], [720633.1855186294, 4302966.166372163], [720633.6958502852, 4302966.732640826]]]}, "properties": {}}, {"type": "Feature", "geometry": {"type": "Polygon", "coordinates": [[[720633.1855186294, 4302966.166372163], [720633.8187077962, 4302965.627178775], [720633.308887829, 4302965.059633265], [720632.6751881607, 4302965.600103797], [720633.1855186294, 4302966.166372163]]]}, "properties": {}}, {"type": "Feature", "geometry": {"type": "Polygon", "coordinates": [[[720632.6751881607, 4302965.600103797], [720633.308887829, 4302965.059633265], [720632.7990666745, 4302964.492088052], [720632.1648570985, 4302965.033835432], [720632.6751881607, 4302965.600103797]]]}, "properties": {}}, {"type": "Feature", "geometry": {"type": "Polygon", "coordinates": [[[720632.1648570985, 4302965.033835432], [720632.7990666745, 4302964.492088052], [720632.2892467073, 4302963.924542543], [720631.6545260362, 4302964.467567363], [720632.1648570985, 4302965.033835432]]]}, "properties": {}}, {"type": "Feature", "geometry": {"type": "Polygon", "coordinates": [[[720631.6545260362, 4302964.467567363], [720632.2892467073, 4302963.924542543], [720631.7794267401, 4302963.356996736], [720631.1441946771, 4302963.9012987], [720631.6545260362, 4302964.467567363]]]}, "properties": {}}, {"type": "Feature", "geometry": {"type": "Polygon", "coordinates": [[[720631.1441946771, 4302963.9012987], [720631.7794267401, 4302963.356996736], [720631.2696061792, 4302962.7894509295], [720630.6338636149, 4302963.335030334], [720631.1441946771, 4302963.9012987]]]}, "properties": {}}, {"type": "Feature", "geometry": {"type": "Polygon", "coordinates": [[[720630.6338636149, 4302963.335030334], [720631.2696061792, 4302962.7894509295], [720630.7597856184, 4302962.221905717], [720630.1235322559, 4302962.768761968], [720630.6338636149, 4302963.335030334]]]}, "properties": {}}, {"type": "Feature", "geometry": {"type": "Polygon", "coordinates": [[[720630.1235322559, 4302962.768761968], [720630.7597856184, 4302962.221905717], [720630.2499650576, 4302961.654360504], [720629.6132011935, 4302962.202493603], [720630.1235322559, 4302962.768761968]]]}, "properties": {}}, {"type": "Feature", "geometry": {"type": "Polygon", "coordinates": [[[720629.6132011935, 4302962.202493603], [720630.2499650576, 4302961.654360504], [720629.7401450904, 4302961.086815291], [720629.1028701313, 4302961.6362252375], [720629.6132011935, 4302962.202493603]]]}, "properties": {}}, {"type": "Feature", "geometry": {"type": "Polygon", "coordinates": [[[720629.1028701313, 4302961.6362252375], [720629.7401450904, 4302961.086815291], [720629.2303248263, 4302960.519268891], [720628.592538327, 4302961.0699562775], [720629.1028701313, 4302961.6362252375]]]}, "properties": {}}, {"type": "Feature", "geometry": {"type": "Polygon", "coordinates": [[[720634.8383483243, 4302966.762269646], [720635.4705164882, 4302966.225630101], [720634.9612058352, 4302965.656807447], [720634.3285283571, 4302966.194724285], [720634.8383483243, 4302966.762269646]]]}, "properties": {}}, {"type": "Feature", "geometry": {"type": "Polygon", "coordinates": [[[720634.3285283571, 4302966.194724285], [720634.9612058352, 4302965.656807447], [720634.4518975567, 4302965.087984793], [720633.8187077962, 4302965.627178775], [720634.3285283571, 4302966.194724285]]]}, "properties": {}}, {"type": "Feature", "geometry": {"type": "Polygon", "coordinates": [[[720633.8187077962, 4302965.627178775], [720634.4518975567, 4302965.087984793], [720633.9425869036, 4302964.519162436], [720633.308887829, 4302965.059633265], [720633.8187077962, 4302965.627178775]]]}, "properties": {}}, {"type": "Feature", "geometry": {"type": "Polygon", "coordinates": [[[720633.308887829, 4302965.059633265], [720633.9425869036, 4302964.519162436], [720633.4332780314, 4302963.950340079], [720632.7990666745, 4302964.492088052], [720633.308887829, 4302965.059633265]]]}, "properties": {}}, {"type": "Feature", "geometry": {"type": "Polygon", "coordinates": [[[720632.7990666745, 4302964.492088052], [720633.4332780314, 4302963.950340079], [720632.923967972, 4302963.381518019], [720632.2892467073, 4302963.924542543], [720632.7990666745, 4302964.492088052]]]}, "properties": {}}, {"type": "Feature", "geometry": {"type": "Polygon", "coordinates": [[[720632.2892467073, 4302963.924542543], [720632.923967972, 4302963.381518019], [720632.4146579126, 4302962.812694178], [720631.7794267401, 4302963.356996736], [720632.2892467073, 4302963.924542543]]]}, "properties": {}}, {"type": "Feature", "geometry": {"type": "Polygon", "coordinates": [[[720631.7794267401, 4302963.356996736], [720632.4146579126, 4302962.812694178], [720631.9053484468, 4302962.243872118], [720631.2696061792, 4302962.7894509295], [720631.7794267401, 4302963.356996736]]]}, "properties": {}}, {"type": "Feature", "geometry": {"type": "Polygon", "coordinates": [[[720631.2696061792, 4302962.7894509295], [720631.9053484468, 4302962.243872118], [720631.396038981, 4302961.675049464], [720630.7597856184, 4302962.221905717], [720631.2696061792, 4302962.7894509295]]]}, "properties": {}}, {"type": "Feature", "geometry": {"type": "Polygon", "coordinates": [[[720630.7597856184, 4302962.221905717], [720631.396038981, 4302961.675049464], [720630.886729812, 4302961.10622681], [720630.2499650576, 4302961.654360504], [720630.7597856184, 4302962.221905717]]]}, "properties": {}}, {"type": "Feature", "geometry": {"type": "Polygon", "coordinates": [[[720630.2499650576, 4302961.654360504], [720630.886729812, 4302961.10622681], [720630.3774209397, 4302960.537404157], [720629.7401450904, 4302961.086815291], [720630.2499650576, 4302961.654360504]]]}, "properties": {}}, {"type": "Feature", "geometry": {"type": "Polygon", "coordinates": [[[720629.7401450904, 4302961.086815291], [720630.3774209397, 4302960.537404157], [720629.8681105835, 4302959.968581503], [720629.2303248263, 4302960.519268891], [720629.7401450904, 4302961.086815291]]]}, "properties": {}}, {"type": "Feature", "geometry": {"type": "Polygon", "coordinates": [[[720635.4705164882, 4302966.225630101], [720636.1026822778, 4302965.688990703], [720635.593883907, 4302965.118891203], [720634.9612058352, 4302965.656807447], [720635.4705164882, 4302966.225630101]]]}, "properties": {}}, {"type": "Feature", "geometry": {"type": "Polygon", "coordinates": [[[720634.9612058352, 4302965.656807447], [720635.593883907, 4302965.118891203], [720635.085084349, 4302964.548791702], [720634.4518975567, 4302965.087984793], [720634.9612058352, 4302965.656807447]]]}, "properties": {}}, {"type": "Feature", "geometry": {"type": "Polygon", "coordinates": [[[720634.4518975567, 4302965.087984793], [720635.085084349, 4302964.548791702], [720634.5762859782, 4302963.978691904], [720633.9425869036, 4302964.519162436], [720634.4518975567, 4302965.087984793]]]}, "properties": {}}, {"type": "Feature", "geometry": {"type": "Polygon", "coordinates": [[[720633.9425869036, 4302964.519162436], [720634.5762859782, 4302963.978691904], [720634.0674876075, 4302963.408592403], [720633.4332780314, 4302963.950340079], [720633.9425869036, 4302964.519162436]]]}, "properties": {}}, {"type": "Feature", "geometry": {"type": "Polygon", "coordinates": [[[720633.4332780314, 4302963.950340079], [720634.0674876075, 4302963.408592403], [720633.5586892366, 4302962.838492902], [720632.923967972, 4302963.381518019], [720633.4332780314, 4302963.950340079]]]}, "properties": {}}, {"type": "Feature", "geometry": {"type": "Polygon", "coordinates": [[[720632.923967972, 4302963.381518019], [720633.5586892366, 4302962.838492902], [720633.0498902723, 4302962.268392214], [720632.4146579126, 4302962.812694178], [720632.923967972, 4302963.381518019]]]}, "properties": {}}, {"type": "Feature", "geometry": {"type": "Polygon", "coordinates": [[[720632.4146579126, 4302962.812694178], [720633.0498902723, 4302962.268392214], [720632.5410913079, 4302961.698293307], [720631.9053484468, 4302962.243872118], [720632.4146579126, 4302962.812694178]]]}, "properties": {}}, {"type": "Feature", "geometry": {"type": "Polygon", "coordinates": [[[720631.9053484468, 4302962.243872118], [720632.5410913079, 4302961.698293307], [720632.0322929372, 4302961.128193212], [720631.396038981, 4302961.675049464], [720631.9053484468, 4302962.243872118]]]}, "properties": {}}, {"type": "Feature", "geometry": {"type": "Polygon", "coordinates": [[[720631.396038981, 4302961.675049464], [720632.0322929372, 4302961.128193212], [720631.5234939728, 4302960.558093711], [720630.886729812, 4302961.10622681], [720631.396038981, 4302961.675049464]]]}, "properties": {}}, {"type": "Feature", "geometry": {"type": "Polygon", "coordinates": [[[720630.886729812, 4302961.10622681], [720631.5234939728, 4302960.558093711], [720631.0146964925, 4302959.987994211], [720630.3774209397, 4302960.537404157], [720630.886729812, 4302961.10622681]]]}, "properties": {}}, {"type": "Feature", "geometry": {"type": "Polygon", "coordinates": [[[720630.3774209397, 4302960.537404157], [720631.0146964925, 4302959.987994211], [720630.5058966377, 4302959.41789471], [720629.8681105835, 4302959.968581503], [720630.3774209397, 4302960.537404157]]]}, "properties": {}}], "crs": {"type": "name", "properties": {"name": "EPSG:32615"}}}